NORAD_CAT_ID,OBJECT_NAME,OBJECT_TYPE,EPOCH,MEAN_MOTION,ECCENTRICITY,INCLINATION,RA_OF_ASC_NODE,ARG_OF_PERICENTER,MEAN_ANOMALY,BSTAR,MEAN_MOTION_DOT,MEAN_MOTION_DDOT,TLE_LINE0,TLE_LINE1,TLE_LINE2,SEMIMAJOR_AXIS,PERIOD,APOGEE,PERIGEE,DECAYED
51960.0,STARLINK-3691,PAYLOAD,2024-06-09 21:20:54,15.04755888,0.0002065,53.0568,18.5179,79.4621,280.66,3.9569e-06,-2.21e-06,0.0,0 STARLINK-3691,1 51960U 22025E   24161.88951782 -.00000221  00000-0  39569-5 0  9997,2 51960  53.0568  18.5179 0002065  79.4621 280.6600 15.04755888125813,6930.392,95.697,553.688,550.826,0.0
51960.0,STARLINK-3691,PAYLOAD,2024-06-10 06:54:45,15.04764184,0.0001708,53.0571,16.7326,93.9107,266.2077,7.7307e-05,8.25e-06,0.0,0 STARLINK-3691,1 51960U 22025E   24162.28802352  .00000825  00000-0  77307-4 0  9990,2 51960  53.0571  16.7326 0001708  93.9107 266.2077 15.04764184125877,6930.367,95.696,553.415,551.048,0.0
51960.0,STARLINK-3691,PAYLOAD,2024-06-10 21:15:32,15.04769403,0.0001245,53.0553,14.0592,88.2091,271.904,9.4056e-05,1.064e-05,0.0,0 STARLINK-3691,1 51960U 22025E   24162.88578942  .00001064  00000-0  94056-4 0  9997,2 51960  53.0553  14.0592 0001245  88.2091 271.9040 15.04769403124879,6930.351,95.696,553.078,551.353,0.0
51960.0,STARLINK-3691,PAYLOAD,2024-06-11 00:26:48,15.04776672,0.0001322,53.0563,13.4626,86.12,273.9939,0.00014254,1.756e-05,0.0,0 STARLINK-3691,1 51960U 22025E   24163.01862098  .00001756  00000-0  14254-3 0  9990,2 51960  53.0563  13.4626 0001322  86.1200 273.9939 15.04776672125984,6930.328,95.695,553.109,551.277,0.0
51960.0,STARLINK-3691,PAYLOAD,2024-06-11 06:49:23,15.04774215,0.0001245,53.0557,12.2722,87.7459,272.3672,-4.0762e-06,-3.35e-06,0.0,0 STARLINK-3691,1 51960U 22025E   24163.28430002 -.00000335  00000-0 -40762-5 0  9994,2 51960  53.0557  12.2722 0001245  87.7459 272.3672 15.04774215124930,6930.336,95.695,553.064,551.338,0.0
51960.0,STARLINK-3691,PAYLOAD,2024-06-12 06:44:02,15.04769955,0.0001495,53.0558,7.8106,89.2471,270.8688,1.9255e-05,-3e-08,0.0,0 STARLINK-3691,1 51960U 22025E   24164.28058535 -.00000003  00000-0  19255-4 0  9995,2 51960  53.0558   7.8106 0001495  89.2471 270.8688 15.04769955126178,6930.349,95.696,553.25,551.178,0.0
51960.0,STARLINK-3691,PAYLOAD,2024-06-12 21:04:50,15.04768034,0.0001415,53.0557,5.1333,81.6948,278.42,-4.5649e-05,-9.28e-06,0.0,0 STARLINK-3691,1 51960U 22025E   24164.87835881 -.00000928  00000-0 -45649-4 0  9990,2 51960  53.0557   5.1333 0001415  81.6948 278.4200 15.04768034125177,6930.355,95.696,553.2,551.239,0.0
51960.0,STARLINK-3691,PAYLOAD,2024-06-13 06:38:41,15.04768667,0.0001387,53.056,3.3493,85.8006,274.314,1.9917e-05,7e-08,0.0,0 STARLINK-3691,1 51960U 22025E   24165.27686893  .00000007  00000-0  19917-4 0  9997,2 51960  53.0560   3.3493 0001387  85.8006 274.3140 15.04768667125234,6930.353,95.696,553.179,551.257,0.0
51960.0,STARLINK-3691,PAYLOAD,2024-06-13 22:35:06,15.0477838,0.0001425,53.0563,0.3747,88.38,271.7351,2.1339e-05,2.7e-07,0.0,0 STARLINK-3691,1 51960U 22025E   24165.94104933  .00000027  00000-0  21339-4 0  9994,2 51960  53.0563   0.3747 0001425  88.3800 271.7351 15.04778380125338,6930.323,95.695,553.176,551.2,0.0
51960.0,STARLINK-3691,PAYLOAD,2024-06-14 06:33:19,15.04776837,0.0001426,53.056,358.8879,87.6125,272.5027,-2.1207e-05,-5.79e-06,0.0,0 STARLINK-3691,1 51960U 22025E   24166.27314393 -.00000579  00000-0 -21207-4 0  9992,2 51960  53.0560 358.8879 0001426  87.6125 272.5027 15.04776837125384,6930.328,95.695,553.181,551.205,0.0
51960.0,STARLINK-3691,PAYLOAD,2024-06-14 22:29:45,15.04769058,0.0001419,53.0562,355.9122,97.0939,263.0211,0.00011053,1.299e-05,0.0,0 STARLINK-3691,1 51960U 22025E   24166.93733476  .00001299  00000-0  11053-3 0  9997,2 51960  53.0562 355.9122 0001419  97.0939 263.0211 15.04769058125483,6930.352,95.696,553.2,551.233,0.0
51960.0,STARLINK-3691,PAYLOAD,2024-06-15 19:13:07,15.0476667,0.0001318,53.0534,352.0489,89.082,271.0319,4.6297e-05,3.83e-06,0.0,0 STARLINK-3691,1 51960U 22025E   24167.80078304  .00000383  00000-0  46297-4 0  9998,2 51960  53.0534 352.0489 0001318  89.0820 271.0319 15.04766670125614,6930.359,95.696,553.137,551.311,0.0
51960.0,STARLINK-3691,PAYLOAD,2024-06-16 12:45:12,15.04767218,0.0001345,53.0543,348.7757,92.3453,267.7689,6.5817e-05,6.61e-06,0.0,0 STARLINK-3691,1 51960U 22025E   24168.53138918  .00000661  00000-0  65817-4 0  9995,2 51960  53.0543 348.7757 0001345  92.3453 267.7689 15.04767218125726,6930.357,95.696,553.154,551.29,0.0
51960.0,STARLINK-3691,PAYLOAD,2024-06-16 17:32:07,15.04770605,0.0001411,53.0551,347.8828,92.6717,267.4432,7.1058e-05,7.36e-06,0.0,0 STARLINK-3691,1 51960U 22025E   24168.73064363  .00000736  00000-0  71058-4 0  9996,2 51960  53.0551 347.8828 0001411  92.6717 267.4432 15.04770605125754,6930.347,95.696,553.19,551.234,0.0
51960.0,STARLINK-3691,PAYLOAD,2024-06-17 20:38:03,15.04766114,0.000141,53.0555,342.8294,90.7426,269.3724,5.238e-05,4.7e-06,0.0,0 STARLINK-3691,1 51960U 22025E   24169.85976736  .00000470  00000-0  52380-4 0  9998,2 51960  53.0555 342.8294 0001410  90.7426 269.3724 15.04766114127011,6930.361,95.696,553.203,551.249,0.0
51960.0,STARLINK-3691,PAYLOAD,2024-06-18 10:58:51,15.04768048,0.0001466,53.056,340.1524,88.6419,271.4737,4.0378e-05,2.99e-06,0.0,0 STARLINK-3691,1 51960U 22025E   24170.45753589  .00000299  00000-0  40378-4 0  9998,2 51960  53.0560 340.1524 0001466  88.6419 271.4737 15.04768048126018,6930.355,95.696,553.236,551.204,0.0
51960.0,STARLINK-3691,PAYLOAD,2024-06-18 18:57:03,15.04773212,0.0001408,53.0552,338.6663,89.6381,270.4768,7.6624e-05,8.16e-06,0.0,0 STARLINK-3691,1 51960U 22025E   24170.78962434  .00000816  00000-0  76624-4 0  9993,2 51960  53.0552 338.6663 0001408  89.6381 270.4768 15.04773212126067,6930.339,95.695,553.18,551.228,0.0
51960.0,STARLINK-3691,PAYLOAD,2024-06-19 10:53:29,15.0476443,0.0001406,53.0554,335.6927,93.9279,266.187,4.5947e-05,3.78e-06,0.0,0 STARLINK-3691,1 51960U 22025E   24171.45381782  .00000378  00000-0  45947-4 0  9996,2 51960  53.0554 335.6927 0001406  93.9279 266.1870 15.04764430127251,6930.366,95.696,553.205,551.256,0.0
51960.0,STARLINK-3691,PAYLOAD,2024-06-19 17:16:04,15.04764709,0.0001325,53.0547,334.5021,95.6664,264.4475,4.631e-05,3.83e-06,0.0,0 STARLINK-3691,1 51960U 22025E   24171.71949280  .00000383  00000-0  46310-4 0  9999,2 51960  53.0547 334.5021 0001325  95.6664 264.4475 15.04764709126208,6930.365,95.696,553.148,551.312,0.0
51960.0,STARLINK-3691,PAYLOAD,2024-06-20 13:59:25,15.04768954,0.0001417,53.0557,330.6357,94.4791,265.636,3.6097e-05,2.38e-06,0.0,0 STARLINK-3691,1 51960U 22025E   24172.58293569  .00000238  00000-0  36097-4 0  9997,2 51960  53.0557 330.6357 0001417  94.4791 265.6360 15.04768954126334,6930.352,95.696,553.199,551.235,0.0
51960.0,STARLINK-3691,PAYLOAD,2024-06-20 20:21:59,15.04773054,0.0001275,53.0551,329.446,92.9421,267.1714,6.2216e-05,6.1e-06,0.0,0 STARLINK-3691,1 51960U 22025E   24172.84860695  .00000610  00000-0  62216-4 0  9992,2 51960  53.0551 329.4460 0001275  92.9421 267.1714 15.04773054127466,6930.339,95.695,553.088,551.321,0.0
51960.0,STARLINK-3691,PAYLOAD,2024-06-21 10:42:47,15.04760251,0.0001447,53.0546,326.7679,99.4227,260.6925,-4.4422e-07,-2.83e-06,0.0,0 STARLINK-3691,1 51960U 22025E   24173.44638737 -.00000283  00000-0 -44422-6 0  9998,2 51960  53.0546 326.7679 0001447  99.4227 260.6925 15.04760251127556,6930.379,95.696,553.247,551.241,0.0
51960.0,STARLINK-3691,PAYLOAD,2024-06-21 13:54:04,15.0476236,0.0001398,53.0548,326.1728,102.0933,258.0212,1.0206e-05,-1.32e-06,0.0,0 STARLINK-3691,1 51960U 22025E   24173.57922391 -.00000132  00000-0  10206-4 0  9997,2 51960  53.0548 326.1728 0001398 102.0933 258.0212 15.04762360126481,6930.372,95.696,553.206,551.268,0.0
51960.0,STARLINK-3691,PAYLOAD,2024-06-21 17:05:22,15.04763264,0.0001359,53.0559,325.5795,101.5237,258.5904,3.4527e-05,2.15e-06,0.0,0 STARLINK-3691,1 51960U 22025E   24173.71206083  .00000215  00000-0  34527-4 0  9999,2 51960  53.0559 325.5795 0001359 101.5237 258.5904 15.04763264126508,6930.369,95.696,553.176,551.293,0.0
51960.0,STARLINK-3691,PAYLOAD,2024-06-22 13:48:43,15.04766954,0.000143,53.0565,321.7136,96.7364,263.3787,3.8437e-05,2.71e-06,0.0,0 STARLINK-3691,1 51960U 22025E   24174.57550546  .00000271  00000-0  38437-4 0  9996,2 51960  53.0565 321.7136 0001430  96.7364 263.3787 15.04766954126634,6930.358,95.696,553.214,551.232,0.0
51960.0,STARLINK-3691,PAYLOAD,2024-06-22 20:11:17,15.04771886,0.0001435,53.0567,320.5226,93.1236,266.9917,6.5864e-05,6.62e-06,0.0,0 STARLINK-3691,1 51960U 22025E   24174.84117712  .00000662  00000-0  65864-4 0  9998,2 51960  53.0567 320.5226 0001435  93.1236 266.9917 15.04771886127766,6930.343,95.696,553.202,551.213,0.0
51960.0,STARLINK-3691,PAYLOAD,2024-06-23 13:43:22,15.04766681,0.0001382,53.0566,317.2508,88.6573,271.4573,8.9167e-05,9.94e-06,0.0,0 STARLINK-3691,1 51960U 22025E   24175.57178700  .00000994  00000-0  89167-4 0  9993,2 51960  53.0566 317.2508 0001382  88.6573 271.4573 15.04766681126782,6930.359,95.696,553.182,551.266,0.0
51960.0,STARLINK-3691,PAYLOAD,2024-06-23 18:30:17,15.04771852,0.0001613,53.0578,316.3575,85.632,274.4852,0.00011911,1.421e-05,0.0,0 STARLINK-3691,1 51960U 22025E   24175.77103908  .00001421  00000-0  11911-3 0  9990,2 51960  53.0578 316.3575 0001613  85.6320 274.4852 15.04771852126816,6930.343,95.696,553.326,551.09,0.0
51960.0,STARLINK-3691,PAYLOAD,2024-06-24 13:38:00,15.0477077,0.0001476,53.0564,312.793,69.6799,290.4347,8.373e-05,9.17e-06,0.0,0 STARLINK-3691,1 51960U 22025E   24176.56806527  .00000917  00000-0  83730-4 0  9993,2 51960  53.0564 312.7930 0001476  69.6799 290.4347 15.04770770128025,6930.346,95.696,553.234,551.188,0.0
51960.0,STARLINK-3691,PAYLOAD,2024-06-24 16:49:17,15.04771892,0.0001598,53.0561,312.1974,82.2308,277.8862,0.00014864,1.843e-05,0.0,0 STARLINK-3691,1 51960U 22025E   24176.70089956  .00001843  00000-0  14864-3 0  9998,2 51960  53.0561 312.1974 0001598  82.2308 277.8862 15.04771892126953,6930.343,95.696,553.315,551.101,0.0
